GLOBALSTAR M023         
1 25621U 99004A   25158.24559326 -.00000010  00000+0  52359-3 0  9993
2 25621  52.0110  83.7125 0009864 100.5077  64.0498 12.62507243214471
GLOBALSTAR M040         
1 25622U 99004B   25158.53541944 -.00000091  00000+0  72886-4 0  9990
2 25622  51.9917  86.9705 0001351  24.8354 146.6592 12.62011634214031
GLOBALSTAR M036         
1 25623U 99004C   25158.59627170 -.00000014  00000+0  10037-2 0  9996
2 25623  51.9972 265.6029 0011035  37.4293 335.9200 11.86603061177842
GLOBALSTAR M038         
1 25624U 99004D   25158.55128073 -.00000093  00000+0  13453-4 0  9995
2 25624  51.9968  99.3206 0002322  32.3164 139.0045 12.32528063201182
GLOBALSTAR M022         
1 25649U 99012A   25158.51756892 -.00000070  00000+0  20836-3 0  9990
2 25649  52.0056 317.1881 0003172 145.0057 286.7865 12.02500191175219
GLOBALSTAR M041         
1 25650U 99012B   25158.44557645 -.00000033  00000+0  66881-3 0  9998
2 25650  51.9991 198.5418 0001579 290.5699  69.4968 11.96680478177111
GLOBALSTAR M046         
1 25651U 99012C   25158.58094030 -.00000084  00000+0  50909-4 0  9999
2 25651  52.0048 267.5008 0002124 218.7988 154.2983 12.09407858182502
GLOBALSTAR M037         
1 25652U 99012D   25158.53675797 -.00000064  00000+0  22314-3 0  9996
2 25652  51.9986 213.4519 0002330 167.3420 339.6511 12.62445928210055
